{
  "type":  "Feature",
  "properties": {
       "name": "Locations generated by GNSS-SDR" 
   },
  "geometry": {
      "type": "MultiPoint",
      "coordinates": [
       [1.98769191659127, 41.27478826954298, 73.63142974954098],
       [1.98768516400708, 41.27478502018592, 76.58875456918031],
       [1.98767695968475, 41.27478561148956, 74.72036374825984],
       [1.98766955531498, 41.27478417804691, 73.55208463408053],
       [1.98766086205079, 41.27478180197469, 73.76500751823187],
       [1.98765585374741, 41.27478046441571, 74.34741009213030],
       [1.98765691824215, 41.27478314437918, 74.38652808126062],
       [1.98765765390725, 41.27478332884082, 74.53163657989353],
       [1.98765684574995, 41.27478353841047, 74.74848094582558],
       [1.98765710196900, 41.27478670390190, 74.89547508023679],
       [1.98765697602751, 41.27478847064894, 75.14851550199091],
       [1.98765866680264, 41.27478917616691, 75.34654331859201],
       [1.98765930821161, 41.27478830109904, 75.46374069247395],
       [1.98766170823557, 41.27479004470658, 75.08371070772409],
       [1.98766123698175, 41.27478927263602, 74.76171687245369],
       [1.98766157824868, 41.27479007112358, 74.50014987308532],
       [1.98766096442718, 41.27479109335469, 74.24587171059102],
       [1.98766124872698, 41.27479365887383, 74.36432358622551],
       [1.98766296947664, 41.27479551946644, 74.50995779689401],
       [1.98766435308074, 41.27479592399134, 74.54570448864251],
       [1.98766638597857, 41.27479617615003, 74.44337978400290],
       [1.98766687681131, 41.27479554806855, 74.43442934472114],
       [1.98766663896394, 41.27479458067511, 74.27698584273458],
       [1.98766664688371, 41.27479325592732, 74.10785801615566],
       [1.98766725601888, 41.27479290089844, 73.93387996312231],
       [1.98766809585820, 41.27479349251217, 74.23580324649811],
       [1.98766837546995, 41.27479411036580, 74.40585177578032],
       [1.98766853022979, 41.27479383325733, 74.47485558036715],
       [1.98766804212578, 41.27479320418751, 74.81190270185471],
       [1.98766815421355, 41.27479346145757, 74.92046262416989],
       [1.98766856362386, 41.27479347450632, 74.97986068669707],
       [1.98766939748447, 41.27479376049410, 74.95109118800610],
       [1.98767007855602, 41.27479333643024, 74.83180049713701],
       [1.98766916865229, 41.27479212185360, 75.14267943240702],
       [1.98766831729607, 41.27479144932734, 75.39535639900714],
       [1.98766789070382, 41.27479053032537, 75.59043838921934],
       [1.98766811775078, 41.27478995144306, 75.74603365827352],
       [1.98766845296130, 41.27478954081062, 75.92989035416394],
       [1.98766954585782, 41.27479044968839, 75.85706002544612],
       [1.98767072413528, 41.27479115684221, 75.74830448534340],
       [1.98767155075500, 41.27479128992433, 75.55168699659407],
       [1.98767124916569, 41.27479102193684, 75.62015441246331],
       [1.98767113674332, 41.27479133313324, 75.64743963535875],
       [1.98767146332040, 41.27479138823000, 75.67573261912912],
       [1.98767159264530, 41.27479164214353, 75.65931731183082],
       [1.98767188453069, 41.27479239358730, 75.64086135197431],
       [1.98767253373747, 41.27479263133553, 75.48384952731431],
       [1.98767298600559, 41.27479251437912, 75.41375477798283],
       [1.98767271410921, 41.27479184514030, 75.56092046946287],
       [1.98767335045906, 41.27479212740096, 75.62120008654892],
       [1.98767391690354, 41.27479303044674, 75.66787434183061],
       [1.98767444136907, 41.27479334575312, 75.77346511557698],
       [1.98767420548623, 41.27479288925047, 75.95152127277106],
       [1.98767430850306, 41.27479271380736, 76.02681919839233],
       [1.98767385442639, 41.27479238978411, 76.14242238923907],
       [1.98767398898082, 41.27479276882756, 76.30106407124549],
       [1.98767460084704, 41.27479327747395, 76.32637045811862],
       [1.98767513265795, 41.27479386131709, 76.32055567484349],
       [1.98767547828945, 41.27479466807718, 76.24556115269661],
       [1.98767609872649, 41.27479542475584, 76.17189614381641],
       [1.98767663105606, 41.27479595726184, 76.07754828780890],
       [1.98767711303488, 41.27479626008584, 76.02293718326837],
       [1.98767732758560, 41.27479637985672, 76.03918338473886],
       [1.98767755356772, 41.27479648907336, 75.97934100870043],
       [1.98767766996705, 41.27479674520735, 75.95218394976109],
       [1.98767773804478, 41.27479714031702, 76.02927627880126],
       [1.98767757507219, 41.27479752767121, 76.08849436882883],
       [1.98767769754954, 41.27479801210844, 76.03204798419029],
       [1.98767800419650, 41.27479850544838, 75.96185961738229],
       [1.98767854670990, 41.27479906746616, 75.86768518481404],
       [1.98767900614198, 41.27479960584220, 75.76761235110462],
       [1.98767951893221, 41.27480004289783, 75.63624028488994],
       [1.98767942639747, 41.27480010014038, 75.62933506444097],
       [1.98767928055352, 41.27480007729235, 75.64696249924600],
       [1.98767938417813, 41.27480023558144, 75.62721619941294],
       [1.98767942190830, 41.27480048671028, 75.67709011863917],
       [1.98767925301793, 41.27480040684489, 75.75121408235282],
       [1.98767902871848, 41.27480021996470, 75.78005658555776],
       [1.98767906997750, 41.27480028755247, 75.78827909100801],
       [1.98767914733786, 41.27480076765055, 75.72434849478304],
       [1.98767940539115, 41.27480119536180, 75.61446551978588],
       [1.98767976143708, 41.27480162101969, 75.54583899211138],
       [1.98767993002972, 41.27480179961513, 75.52802593074739],
       [1.98767997198265, 41.27480210192302, 75.45570948626846],
       [1.98767983653442, 41.27480234620252, 75.35799192637205],
       [1.98767953957064, 41.27480268435753, 75.34076216351241],
       [1.98767959821654, 41.27480298791823, 75.36469348706305],
       [1.98767987579174, 41.27480359713451, 75.33010728377849],
       [1.98768047047551, 41.27480421974793, 75.23190891463310],
       [1.98768136009159, 41.27480520701034, 75.08609587419778],
       [1.98768178105975, 41.27480561387301, 75.05936101358384],
       [1.98768213583315, 41.27480604463864, 75.01721906848252],
       [1.98768237253508, 41.27480649557509, 74.92509994748980],
       [1.98768230542949, 41.27480671778635, 74.90863884706050],
       [1.98768228188792, 41.27480704291290, 74.92720671836287],
       [1.98768223109790, 41.27480720044142, 74.98634251393378],
       [1.98768205911979, 41.27480720014724, 75.06791307870299],
       [1.98768208342152, 41.27480729370845, 75.06935684010386],
       [1.98768240172056, 41.27480759795296, 75.00163083057851],
       [1.98768269851520, 41.27480765638163, 74.94831280130893],
       [1.98768273994789, 41.27480779621563, 74.96843097731471],
       [1.98768291990634, 41.27480815308786, 74.96636875253171],
       [1.98768324767222, 41.27480856460897, 74.95472844876349],
       [1.98768358641801, 41.27480913135052, 74.95725260768086],
       [1.98768391203187, 41.27480971092912, 74.90246204100549],
       [1.98768432526963, 41.27481031789207, 74.88932168669999],
       [1.98768470636841, 41.27481062099113, 74.90979201439768],
       [1.98768498959024, 41.27481080176265, 74.88663377147168],
       [1.98768505740081, 41.27481096131271, 74.89849519450217],
       [1.98768495979773, 41.27481101000114, 74.92556968051940],
       [1.98768502513978, 41.27481121089369, 74.94022800493985],
       [1.98768494991896, 41.27481138866933, 74.95579556003213],
       [1.98768488755697, 41.27481158535636, 75.03090167697519],
       [1.98768481169230, 41.27481160970959, 75.13927226886153],
       [1.98768482443727, 41.27481155621781, 75.22831381950527],
       [1.98768484817278, 41.27481180435183, 75.24399513844401],
       [1.98768488625850, 41.27481212798662, 75.23994289524853],
       [1.98768507185490, 41.27481247553661, 75.26948685012758],
       [1.98768514354233, 41.27481286225956, 75.29138588998467],
       [1.98768532940723, 41.27481345812891, 75.29970782063901],
       [1.98768579296755, 41.27481406586814, 75.25606224965304],
       [1.98768592059256, 41.27481418442817, 75.26630775444210],
       [1.98768574218881, 41.27481418711399, 75.32164900749922],
       [1.98768568018363, 41.27481418944492, 75.42624418344349],
       [1.98768593468737, 41.27481446198865, 75.44281912781298],
       [1.98768611515346, 41.27481481883887, 75.39621961582452],
       [1.98768637376136, 41.27481527316571, 75.40990039892495],
       [1.98768667835531, 41.27481577229491, 75.47285173181444],
       [1.98768668331153, 41.27481598775113, 75.53997880034149],
       [1.98768663156687, 41.27481600888269, 75.54496386274695],
       [1.98768658144226, 41.27481614242330, 75.50830646511167],
       [1.98768664231222, 41.27481637320462, 75.50916439294815],
       [1.98768669279109, 41.27481642118938, 75.49596914555877],
       [1.98768674830724, 41.27481650301313, 75.49373775720596],
       [1.98768681182568, 41.27481656169444, 75.50784044060856],
       [1.98768686032334, 41.27481662425560, 75.54349112138152],
       [1.98768685337409, 41.27481668521739, 75.58185186982155],
       [1.98768683287458, 41.27481665912094, 75.62716250866652],
       [1.98768693221078, 41.27481683063828, 75.63070381153375],
       [1.98768700280092, 41.27481692792842, 75.63999362196773],
       [1.98768720487276, 41.27481716091324, 75.67649676371366],
       [1.98768731131516, 41.27481727376066, 75.70251414366066],
       [1.98768734544984, 41.27481728778421, 75.73171872459352],
       [1.98768743071289, 41.27481735225626, 75.75592050421983],
       [1.98768747034041, 41.27481764030702, 75.79674207605422],
       [1.98768747448803, 41.27481799256802, 75.83302544802427],
       [1.98768731642970, 41.27481807946058, 75.85664112307131],
       [1.98768730506840, 41.27481822977275, 75.84397862292826],
       [1.98768750612677, 41.27481851347942, 75.82770267687738],
       [1.98768779068382, 41.27481875241522, 75.83004008047283],
       [1.98768814855364, 41.27481902339137, 75.83945282641798],
       [1.98768856106384, 41.27481918459245, 75.85281603969634],
       [1.98768891644065, 41.27481940035678, 75.88557717204094],
       [1.98768918510319, 41.27481965146755, 75.92317602317780],
       [1.98768941925818, 41.27481993526060, 75.91601872630417],
       [1.98768953974035, 41.27482002343490, 75.89589376747608],
       [1.98768958093015, 41.27482012253785, 75.90055397339165],
       [1.98768947204987, 41.27482017760839, 75.92935890145600],
       [1.98768945610121, 41.27482021038292, 75.95495828334242],
       [1.98768951391982, 41.27482031029236, 75.98517834395170],
       [1.98768961615290, 41.27482033886030, 76.05659898277372],
       [1.98768998748611, 41.27482051636095, 76.04674123041332],
       [1.98769023117936, 41.27482057579503, 76.00030434969813],
       [1.98769033655220, 41.27482059482935, 75.98837759904563],
       [1.98769059387192, 41.27482075224004, 75.94564064871520],
       [1.98769068852899, 41.27482088268764, 75.93236172944307],
       [1.98769061817616, 41.27482100425139, 75.93144849408418],
       [1.98769069196017, 41.27482121253522, 75.89835837390274],
       [1.98769084520776, 41.27482141897913, 75.87836303375661],
       [1.98769098789252, 41.27482154252424, 75.88783578854054],
       [1.98769098118932, 41.27482137241040, 75.88508653547615],
       [1.98769093022797, 41.27482116710682, 75.86354075931013],
       [1.98769086446477, 41.27482099492937, 75.83790541160852],
       [1.98769083989918, 41.27482085666467, 75.83922565542161],
       [1.98769073172231, 41.27482063311744, 75.83964521344751],
       [1.98769067433964, 41.27482063407170, 75.81686144880950],
       [1.98769068755357, 41.27482072192991, 75.78789468761533],
       [1.98769072282018, 41.27482082331346, 75.81302439142019],
       [1.98769068114413, 41.27482090744649, 75.85169910918921],
       [1.98769075211311, 41.27482111827915, 75.83583232481033],
       [1.98769093390921, 41.27482136979958, 75.78824956249446],
       [1.98769099620267, 41.27482150097999, 75.75279520079494],
       [1.98769097470327, 41.27482149287152, 75.73132167849690],
       [1.98769095445608, 41.27482140980183, 75.70729943830520],
       [1.98769089079424, 41.27482134260954, 75.72041133604944],
       [1.98769085721416, 41.27482142781090, 75.76254278887063],
       [1.98769090664227, 41.27482154102296, 75.76038534287363],
       [1.98769099386193, 41.27482158923878, 75.74696282576770],
       [1.98769110932204, 41.27482162224630, 75.72807821817696],
       [1.98769132022416, 41.27482165765053, 75.68859927728772],
       [1.98769149823390, 41.27482176173451, 75.66623091045767],
       [1.98769160326103, 41.27482181190175, 75.67627675179392],
       [1.98769167686197, 41.27482191117068, 75.67706319596618],
       [1.98769163131911, 41.27482195350719, 75.65828157216311],
       [1.98769149501081, 41.27482187774785, 75.68061313964427],
       [1.98769152892221, 41.27482188820701, 75.69839054252952],
       [1.98769158621307, 41.27482179561498, 75.71472403220832],
       [1.98769147104714, 41.27482176755177, 75.71691321767867],
       [1.98769124772359, 41.27482164082384, 75.73374980688095],
       [1.98769108611896, 41.27482153474113, 75.71764555014670],
       [1.98769104633868, 41.27482167003965, 75.69350421987474],
       [1.98769111469719, 41.27482192105774, 75.67326944787055],
       [1.98769125886642, 41.27482211381080, 75.65689553413540],
       [1.98769138980082, 41.27482219718849, 75.62918162904680],
       [1.98769157446479, 41.27482233768546, 75.60433840937912],
       [1.98769169286702, 41.27482242058515, 75.58015043102205],
       [1.98769166646691, 41.27482245458997, 75.55337500199676],
       [1.98769164965393, 41.27482248269620, 75.49903159867972],
       [1.98769163403881, 41.27482251908596, 75.46912968996912],
       [1.98769160894502, 41.27482263937134, 75.42319964244962],
       [1.98769150954957, 41.27482275233351, 75.36977282445878],
       [1.98769135777742, 41.27482281376961, 75.33875699900091],
       [1.98769124387104, 41.27482287311089, 75.32358471490443],
       [1.98769119117768, 41.27482284606784, 75.32490935456008],
       [1.98769123672849, 41.27482286343994, 75.29090806748718],
       [1.98769126048958, 41.27482290580596, 75.26446534693241],
       [1.98769118207126, 41.27482287257812, 75.25731563568115],
       [1.98769099024904, 41.27482258798366, 75.21363922115415],
       [1.98769083541428, 41.27482259409603, 75.16722231451422],
       [1.98769070806374, 41.27482259008499, 75.16807600017637],
       [1.98769067700174, 41.27482259444746, 75.17357100639492],
       [1.98769066687084, 41.27482252063060, 75.19603806361556],
       [1.98769055237004, 41.27482235590058, 75.22807056177408],
       [1.98769048686392, 41.27482231457452, 75.21701092459261],
       [1.98769055259777, 41.27482241460321, 75.17571797780693],
       [1.98769060045856, 41.27482251255852, 75.13390669226646],
       [1.98769059194642, 41.27482260920099, 75.06823255494237],
       [1.98769051646516, 41.27482263293750, 75.04158739186823],
       [1.98769042499253, 41.27482275098190, 74.99112965073436],
       [1.98769033370738, 41.27482288971333, 74.94715532194823],
       [1.98769023766395, 41.27482300626576, 74.90084180980921],
       [1.98769012529391, 41.27482313509787, 74.90705031994730],
       [1.98768980424632, 41.27482301904738, 74.96599021088332],
       [1.98768954439821, 41.27482282997047, 74.98357276059687],
       [1.98768936905568, 41.27482271180419, 74.96140553802252],
       [1.98768926396047, 41.27482272905687, 74.93338919710368],
       [1.98768919055483, 41.27482269017922, 74.92921422515064],
       [1.98768910572284, 41.27482269522737, 74.93521619215608],
       [1.98768902146966, 41.27482282396994, 74.92798653058708],
       [1.98768888400230, 41.27482288613602, 74.92926405742764],
       [1.98768874532694, 41.27482288487853, 74.93535895086825],
       [1.98768875221373, 41.27482296275461, 74.91885826550424],
       [1.98768864556766, 41.27482299046641, 74.89877936150879],
       [1.98768855096980, 41.27482305220285, 74.88355333078653],
       [1.98768842467804, 41.27482300228566, 74.88917117659003],
       [1.98768817347560, 41.27482287806539, 74.89761029928923],
       [1.98768792111194, 41.27482280281858, 74.88404504302889],
       [1.98768777752532, 41.27482279864596, 74.89974629133940],
       [1.98768766555113, 41.27482287181687, 74.89532449375838],
       [1.98768768886233, 41.27482296113431, 74.89434016682208],
       [1.98768765849317, 41.27482296110342, 74.86424744687974],
       [1.98768763939655, 41.27482309704813, 74.81939593423158],
       [1.98768755906354, 41.27482316093790, 74.79024617467076],
       [1.98768751480393, 41.27482315064157, 74.80392421968281],
       [1.98768755534615, 41.27482323799178, 74.79998595081270],
       [1.98768757395742, 41.27482330622080, 74.81746973469853],
       [1.98768756443596, 41.27482335793803, 74.78688299935311],
       [1.98768745382716, 41.27482340398906, 74.78154464717954],
       [1.98768730784295, 41.27482344977322, 74.78436197154224],
       [1.98768732068275, 41.27482361672283, 74.76132682338357],
       [1.98768730881296, 41.27482373037033, 74.75390047580004],
       [1.98768719951646, 41.27482372191390, 74.77042502071708],
       [1.98768709580303, 41.27482369974545, 74.81710276287049],
       [1.98768707633968, 41.27482371113477, 74.85579266306013],
       [1.98768713421651, 41.27482372579087, 74.85618573520333],
       [1.98768719647913, 41.27482380154174, 74.84478813223541],
       [1.98768715291248, 41.27482380477745, 74.86865460127592],
       [1.98768708008740, 41.27482384934333, 74.89111483376473],
       [1.98768705224565, 41.27482377129104, 74.92871355544776],
       [1.98768707106101, 41.27482380244439, 74.94586625881493],
       [1.98768717618322, 41.27482402135174, 74.92783760000020],
       [1.98768712505020, 41.27482414427561, 74.89687940105796],
       [1.98768698054187, 41.27482413318693, 74.85126665141433],
       [1.98768689599503, 41.27482411359993, 74.83617793023586],
       [1.98768692999397, 41.27482413321132, 74.83645777963102],
       [1.98768699443050, 41.27482419551801, 74.85775812622160],
       [1.98768694948800, 41.27482420248993, 74.89445114601403],
       [1.98768694864094, 41.27482421579874, 74.95297480095178],
       [1.98768697408229, 41.27482437874681, 74.98910387046635],
       [1.98768700157278, 41.27482446311905, 75.02625014632940],
       [1.98768705180088, 41.27482450353366, 75.03683742787689],
       [1.98768706246241, 41.27482449750750, 75.06071246881038],
       [1.98768702963584, 41.27482450591347, 75.09820286370814],
       [1.98768701702322, 41.27482455858127, 75.10479354206473],
       [1.98768712126153, 41.27482472469310, 75.09105376806110],
       [1.98768724439416, 41.27482489819493, 75.07659715041518],
       [1.98768736781683, 41.27482504104674, 75.06808744650334],
       [1.98768744822556, 41.27482515472914, 75.05008628964424],
       [1.98768749127924, 41.27482528595145, 75.03416751977056],
       [1.98768750939321, 41.27482540277254, 75.07216114085168],
       [1.98768756444552, 41.27482550541895, 75.08188076410443],
       [1.98768757163312, 41.27482550203118, 75.09519589599222],
       [1.98768756089667, 41.27482549638325, 75.09945228230208],
       [1.98768752546548, 41.27482556399977, 75.09933460596949],
       [1.98768749600674, 41.27482558791551, 75.11194976326078],
       [1.98768749720265, 41.27482559023437, 75.11895135696977],
       [1.98768751957767, 41.27482561362917, 75.11886506900191],
       [1.98768766461210, 41.27482570779140, 75.10061342641711],
       [1.98768779083274, 41.27482582414470, 75.09989731200039],
       [1.98768776218957, 41.27482587812975, 75.11723618302494],
       [1.98768776734388, 41.27482593651212, 75.12817883864045],
       [1.98768782740566, 41.27482600447787, 75.12850225251168],
       [1.98768787386643, 41.27482609035092, 75.11811366584152],
       [1.98768799070635, 41.27482619355168, 75.11408197414130],
       [1.98768819267147, 41.27482629767813, 75.10102197341621],
       [1.98768830810760, 41.27482634902486, 75.10232791490853],
       [1.98768842632468, 41.27482640113796, 75.09334379155189],
       [1.98768848474751, 41.27482646189009, 75.06755335722119],
       [1.98768843176950, 41.27482647119962, 75.08033816330135],
       [1.98768838788426, 41.27482647361747, 75.10988376848400],
       [1.98768834672934, 41.27482645965299, 75.13064120057970],
       [1.98768841426055, 41.27482649772987, 75.14923913683742],
       [1.98768852658745, 41.27482658857273, 75.14243099372834],
       [1.98768860834906, 41.27482670970924, 75.10663626715541],
       [1.98768863396077, 41.27482676833436, 75.08436488825828],
       [1.98768868404394, 41.27482683297134, 75.04403826966882],
       [1.98768866690731, 41.27482697051023, 75.02476118877530],
       [1.98768876161844, 41.27482707610538, 75.02202915400267],
       [1.98768891850349, 41.27482716961610, 75.02341108676046],
       [1.98768900424573, 41.27482716194238, 75.01999496296048],
       [1.98768893177276, 41.27482710916304, 74.99454931635410],
       [1.98768884363860, 41.27482709426554, 74.99715918395668],
       [1.98768883107180, 41.27482710622560, 75.02060528285801],
       [1.98768870827280, 41.27482706380285, 75.05464217439294],
       [1.98768859861690, 41.27482704931489, 75.07870566565543],
       [1.98768846902773, 41.27482703259857, 75.09947220515460],
       [1.98768852555552, 41.27482706937073, 75.12374744843692],
       [1.98768862322932, 41.27482715761917, 75.14213590230793],
       [1.98768868695108, 41.27482723032311, 75.16920564509928],
       [1.98768876925120, 41.27482735311754, 75.14624871406704],
       [1.98768874007789, 41.27482741453479, 75.12025604862720],
       [1.98768862374832, 41.27482739784750, 75.12588223721832],
       [1.98768860208330, 41.27482739738013, 75.11172231286764],
       [1.98768857680898, 41.27482739619965, 75.08910174574703],
       [1.98768856593293, 41.27482742388096, 75.07774196844548],
       [1.98768855084348, 41.27482739024681, 75.07326904032379],
       [1.98768863185732, 41.27482740123359, 75.07152377255261],
       [1.98768864823659, 41.27482744362594, 75.05743871442974],
       [1.98768865201082, 41.27482756190260, 75.03999338671565],
       [1.98768866931736, 41.27482766592605, 75.04636407271028],
       [1.98768872525551, 41.27482774402050, 75.03668438363820],
       [1.98768871635237, 41.27482774855960, 75.03228938672692],
       [1.98768877876230, 41.27482782216449, 75.02163088507950],
       [1.98768877730902, 41.27482788557373, 75.02060793153942],
       [1.98768879158937, 41.27482794851926, 75.02302304748446],
       [1.98768876667949, 41.27482792766221, 75.01912714540958],
       [1.98768874087304, 41.27482786127980, 75.01905632391572],
       [1.98768882070625, 41.27482792359140, 75.01509709935635],
       [1.98768880504051, 41.27482794346743, 75.01338788587600],
       [1.98768878837542, 41.27482802753365, 74.99832946900278],
       [1.98768877569905, 41.27482809531013, 74.98646233510226],
       [1.98768871823680, 41.27482820576139, 74.97191930003464],
       [1.98768869069105, 41.27482828802460, 74.95067626517266],
       [1.98768864870423, 41.27482830711317, 74.93595010321587],
       [1.98768870253936, 41.27482833243434, 74.92284655477852],
       [1.98768877557885, 41.27482835362313, 74.93950757943094],
       [1.98768874509237, 41.27482831968511, 74.95220834203064],
       [1.98768876532045, 41.27482835509702, 74.94426749274135],
       [1.98768878061466, 41.27482839775083, 74.92477746028453],
       [1.98768880179172, 41.27482841156279, 74.90531190019101],
       [1.98768882812844, 41.27482846125286, 74.88920006062835],
       [1.98768885334631, 41.27482848023257, 74.88245301786810],
       [1.98768894230857, 41.27482849291489, 74.86952970176935],
       [1.98768892970156, 41.27482840155106, 74.88587165717036],
       [1.98768895743489, 41.27482838490268, 74.90014383103698],
       [1.98768896214386, 41.27482839146953, 74.91239545401186],
       [1.98768897615155, 41.27482843755347, 74.92866384983063],
       [1.98768895724708, 41.27482841607748, 74.94394307397306],
       [1.98768889354413, 41.27482837238615, 74.96588198561221],
       [1.98768882891789, 41.27482832473392, 74.98220468591899],
       [1.98768884625144, 41.27482828318552, 74.97551196534187],
       [1.98768884394993, 41.27482828200120, 74.96619417890906],
       [1.98768892035229, 41.27482833233702, 74.94912844244391],
       [1.98768906823620, 41.27482841608625, 74.93777358159423],
       [1.98768912304349, 41.27482843802415, 74.93984370492399],
       [1.98768912951832, 41.27482843400445, 74.96076324302703],
       [1.98768915033319, 41.27482846972376, 74.96735730580986],
       [1.98768911981284, 41.27482843788597, 74.98092387337238],
       [1.98768899816563, 41.27482838235083, 75.01057103835046],
       [1.98768877990756, 41.27482825168360, 75.05290961824358],
       [1.98768864315529, 41.27482813989362, 75.09070996008813],
       [1.98768861495513, 41.27482809503822, 75.10786719340831],
       [1.98768864535948, 41.27482811104790, 75.10830784402788],
       [1.98768865035964, 41.27482808917690, 75.10073646437377],
       [1.98768867677732, 41.27482809598830, 75.08983387518674],
       [1.98768879661363, 41.27482816987512, 75.07886638492346],
       [1.98768882891490, 41.27482818992573, 75.09816547296941],
       [1.98768886977338, 41.27482824398832, 75.10405319370329],
       [1.98768889353831, 41.27482825535797, 75.09474851284176],
       [1.98768887441379, 41.27482823590811, 75.09983175620437],
       [1.98768883039656, 41.27482820075590, 75.10385435819626],
       [1.98768877087513, 41.27482815699235, 75.10639298241585],
       [1.98768871000280, 41.27482811798462, 75.11222981754690],
       [1.98768869391582, 41.27482804944000, 75.11088147666305],
       [1.98768878018655, 41.27482804208119, 75.11647885572165],
       [1.98768880711901, 41.27482796824420, 75.12696349807084],
       [1.98768885673706, 41.27482788680498, 75.12237875908613],
       [1.98768887310666, 41.27482784125601, 75.11634918209165],
       [1.98768885017917, 41.27482784142885, 75.11646355409175],
       [1.98768891166513, 41.27482792954418, 75.10840997193009],
       [1.98768897018302, 41.27482810777396, 75.10109400004148],
       [1.98768890244909, 41.27482811350523, 75.08235355000943],
       [1.98768889436587, 41.27482805446216, 75.06772822607309],
       [1.98768900913675, 41.27482806792164, 75.06690292246640],
       [1.98768903310151, 41.27482808763870, 75.07721497863531],
       [1.98768899131338, 41.27482809549279, 75.09395072795451],
       [1.98768895457081, 41.27482810311373, 75.09262501634657],
       [1.98768884876888, 41.27482800181825, 75.08909038826823],
       [1.98768878219218, 41.27482789372620, 75.09245518688112],
       [1.98768887481058, 41.27482790239068, 75.08651122916490],
       [1.98768896021697, 41.27482791470243, 75.07748578675091],
       [1.98768898211602, 41.27482796187948, 75.07841331511736],
       [1.98768898569885, 41.27482800633477, 75.09403333812952],
       [1.98768906478045, 41.27482805968864, 75.09498362988234],
       [1.98768907103746, 41.27482805665321, 75.10493449307978],
       [1.98768901472490, 41.27482804899316, 75.12180949468166],
       [1.98768893293656, 41.27482801279321, 75.13906341604888],
       [1.98768885725570, 41.27482798367606, 75.16467311140150],
       [1.98768883162649, 41.27482798413284, 75.16837273351848],
       [1.98768880024502, 41.27482798134164, 75.15540035068989],
       [1.98768871481101, 41.27482795324468, 75.14235674776137],
       [1.98768871715383, 41.27482798379724, 75.12892156839371],
       [1.98768874820869, 41.27482797704171, 75.12835675850511],
       [1.98768870627012, 41.27482792832592, 75.15976352430880],
       [1.98768861607072, 41.27482787242631, 75.18505580164492],
       [1.98768857601495, 41.27482785568131, 75.18225175142288],
       [1.98768865067369, 41.27482791652632, 75.18123090080917],
       [1.98768866667433, 41.27482792800078, 75.19877593964338],
       [1.98768868495424, 41.27482791119956, 75.21269946079701],
       [1.98768865344018, 41.27482787899319, 75.22144499327987],
       [1.98768857143951, 41.27482784574419, 75.23310880642384],
       [1.98768858287514, 41.27482781917004, 75.24983731843531],
       [1.98768868265580, 41.27482782383996, 75.27020229119807],
       [1.98768873340345, 41.27482782152080, 75.28478722553700],
       [1.98768869624566, 41.27482776913013, 75.28880754485726],
       [1.98768856727745, 41.27482776339775, 75.29197868891060],
       [1.98768847084921, 41.27482774861799, 75.29520552232862],
       [1.98768844579206, 41.27482768287013, 75.32088467758149],
       [1.98768847223926, 41.27482764049584, 75.32168277446181],
       [1.98768850597898, 41.27482763250919, 75.30126626044512],
       [1.98768854922536, 41.27482767329330, 75.26831615250558],
       [1.98768863573083, 41.27482772666548, 75.24062965903431],
       [1.98768866444641, 41.27482767208681, 75.25784306507558],
       [1.98768865428234, 41.27482759962231, 75.29608782287687],
       [1.98768867209713, 41.27482751456701, 75.34867969807237],
       [1.98768861378684, 41.27482746440175, 75.37840981781483],
       [1.98768862745516, 41.27482749753788, 75.39676716551185],
       [1.98768856209393, 41.27482750260593, 75.39640028215945],
       [1.98768849812032, 41.27482748576679, 75.39495276659727],
       [1.98768841912855, 41.27482748316682, 75.39949652086943],
       [1.98768840825430, 41.27482753794653, 75.37694753333926],
       [1.98768852383437, 41.27482759805472, 75.36500481702387],
       [1.98768862810922, 41.27482759828511, 75.37840289343148],
       [1.98768875778077, 41.27482756560851, 75.40877395495772],
       [1.98768875747468, 41.27482746142833, 75.43152690678835],
       [1.98768873188644, 41.27482733640264, 75.44772139750421],
       [1.98768875349104, 41.27482734039260, 75.44541704375297],
       [1.98768871858372, 41.27482735466055, 75.43712792452425],
       [1.98768865925885, 41.27482741717222, 75.40840342734009],
       [1.98768860088005, 41.27482745785188, 75.37362094596028],
       [1.98768867892373, 41.27482750440004, 75.35080034378916],
       [1.98768873674184, 41.27482756119726, 75.35051494464278],
       [1.98768882006842, 41.27482758345680, 75.35982331354171],
       [1.98768887547149, 41.27482758848155, 75.38959674630314],
       [1.98768893383947, 41.27482752009857, 75.43444533739239],
       [1.98768900644960, 41.27482742753131, 75.46208540722728],
       [1.98768914472017, 41.27482743042780, 75.46823861636221],
       [1.98768931475902, 41.27482752204223, 75.46890444215387],
       [1.98768952225401, 41.27482762568518, 75.48272585775703],
       [1.98768971286249, 41.27482763068798, 75.51814145501703],
       [1.98768982935430, 41.27482754293016, 75.56165092252195],
       [1.98768988701769, 41.27482744122115, 75.58045311551541],
       [1.98768986188873, 41.27482738454722, 75.57697802223265],
       [1.98768981435179, 41.27482734820027, 75.57202119473368],
       [1.98768976516774, 41.27482743867122, 75.52748469170183],
       [1.98768980761062, 41.27482750749186, 75.50401569157839],
       [1.98768983755830, 41.27482750654737, 75.51489031594247],
       [1.98768985228414, 41.27482749865496, 75.53400168102235],
       [1.98768984817909, 41.27482750088519, 75.54291327204555],
       [1.98768992620300, 41.27482752560210, 75.55979273095727],
       [1.98769000021723, 41.27482755101230, 75.56139424163848],
       [1.98768997199704, 41.27482752554183, 75.56233949307352],
       [1.98768995620569, 41.27482749362839, 75.55622533150017],
       [1.98768999739713, 41.27482751301733, 75.53673505038023],
       [1.98769002103694, 41.27482749257092, 75.54403661843389],
       [1.98769006538140, 41.27482748391248, 75.56038448680192],
       [1.98769017314325, 41.27482750717881, 75.56640865374357],
       [1.98769016680735, 41.27482751013442, 75.55683899577707],
       [1.98769019329663, 41.27482745145978, 75.54648453276604],
       [1.98769023102677, 41.27482746768516, 75.53159528877586],
       [1.98769034072319, 41.27482754120246, 75.51483764592558],
       [1.98769042969907, 41.27482763021177, 75.47959870938212],
       [1.98769049933636, 41.27482768612732, 75.43973891250789],
       [1.98769051381988, 41.27482762637616, 75.43546278681606],
       [1.98769052273829, 41.27482758138783, 75.43007830157876],
       [1.98769055181821, 41.27482749743676, 75.44056841917336],
       [1.98769054665747, 41.27482744998640, 75.42540741339326],
       [1.98769053901318, 41.27482746826702, 75.40638585016131],
       [1.98769057371241, 41.27482752987052, 75.38492678757757],
       [1.98769065070212, 41.27482759937646, 75.38176823779941],
       [1.98769073072271, 41.27482767265835, 75.37738261651248],
       [1.98769079889982, 41.27482776379635, 75.35688958317041],
       [1.98769091196267, 41.27482781919193, 75.34506987314671],
       [1.98769091656216, 41.27482779025519, 75.34461568761617],
       [1.98769087214950, 41.27482785218968, 75.32832009438425],
       [1.98769090263268, 41.27482789384329, 75.32020150125027],
       [1.98769096395392, 41.27482791207338, 75.29497324302793],
       [1.98769096795242, 41.27482798304622, 75.25869738310575],
       [1.98769101190090, 41.27482803684599, 75.23561767768115],
       [1.98769105285440, 41.27482803324273, 75.23158707004040],
       [1.98769111485361, 41.27482801542507, 75.24469458218664],
       [1.98769118563583, 41.27482801048695, 75.25240648631006],
       [1.98769126491456, 41.27482801840361, 75.24906030017883],
       [1.98769136259519, 41.27482806329368, 75.24278246238828],
       [1.98769144587528, 41.27482809097621, 75.24099653121084],
       [1.98769147977664, 41.27482807188459, 75.24077122192830],
       [1.98769154901459, 41.27482803662426, 75.24561015050858],
       [1.98769157954928, 41.27482800602879, 75.24566341657192],
       [1.98769162265054, 41.27482801714093, 75.23913498874754],
       [1.98769168611294, 41.27482799669122, 75.24502480402589],
       [1.98769174015335, 41.27482798885648, 75.23745923023671],
       [1.98769178552469, 41.27482800871999, 75.22497070673853],
       [1.98769177510043, 41.27482802838534, 75.20077358838171],
       [1.98769182239545, 41.27482802803580, 75.19619269948453],
       [1.98769189871738, 41.27482805767371, 75.19863969460130],
       [1.98769183183710, 41.27482805794434, 75.18038685712963],
       [1.98769176905364, 41.27482806952037, 75.14424453675747],
       [1.98769175025562, 41.27482805876329, 75.10756155289710],
       [1.98769171105699, 41.27482805822879, 75.09298929292709],
       [1.98769176008547, 41.27482807222297, 75.08866586629301],
       [1.98769182298864, 41.27482806976575, 75.09288997668773],
       [1.98769187612658, 41.27482805208454, 75.09890463110059],
       [1.98769190870279, 41.27482807538378, 75.10090907383710],
       [1.98769184479977, 41.27482810797652, 75.09364805929363],
       [1.98769169595761, 41.27482811262005, 75.06444322131574],
       [1.98769155842232, 41.27482811991165, 75.03655118215829],
       [1.98769154058494, 41.27482810643303, 75.01777556166053],
       [1.98769156866385, 41.27482805623418, 75.02006194647402],
       [1.98769158533755, 41.27482803498241, 75.02637264225632],
       [1.98769162980982, 41.27482807144838, 75.01457738317549],
       [1.98769163881283, 41.27482809203390, 75.00325549114496],
       [1.98769167814934, 41.27482809863839, 74.99032699409872],
       [1.98769170045156, 41.27482813059027, 74.96580503042787],
       [1.98769168600949, 41.27482813464109, 74.95089300815016],
       [1.98769167037705, 41.27482810753618, 74.94657258968800],
       [1.98769166697548, 41.27482805752136, 74.94234818127006],
       [1.98769167110678, 41.27482801588687, 74.94660069514066],
       [1.98769166803184, 41.27482801160434, 74.94950511399657],
       [1.98769166521295, 41.27482800962195, 74.95869690179825],
       [1.98769165499342, 41.27482804484570, 74.95152767840773],
       [1.98769160144084, 41.27482806970910, 74.94404551479965],
       [1.98769155244193, 41.27482806744537, 74.93936813250184],
       [1.98769153310804, 41.27482806681888, 74.93411557842046],
       [1.98769152256313, 41.27482804349558, 74.92795952688903],
       [1.98769153691661, 41.27482806835912, 74.90978603158146],
       [1.98769151927242, 41.27482807777012, 74.90323264524341],
       [1.98769144515739, 41.27482805281743, 74.89299205224961],
       [1.98769143265385, 41.27482805578520, 74.88181459065527],
       [1.98769143965782, 41.27482808158607, 74.87559461127967],
       [1.98769148333570, 41.27482809093548, 74.88004565797746],
       [1.98769153306799, 41.27482810803519, 74.87561909761280],
       [1.98769156364616, 41.27482814988454, 74.87195096630603],
       [1.98769153447247, 41.27482816421672, 74.86595129780471],
       [1.98769153487635, 41.27482817509233, 74.85304009541869],
       [1.98769152614680, 41.27482815557251, 74.83833067864180],
       [1.98769151310264, 41.27482813415436, 74.82430112920702],
       [1.98769152178765, 41.27482817601685, 74.80991461314261],
       [1.98769145815226, 41.27482818837462, 74.79667209926993],
       [1.98769141976216, 41.27482817041937, 74.78534065000713],
       [1.98769132507685, 41.27482808478972, 74.78734111506492],
       [1.98769131377215, 41.27482807518387, 74.78023436013609],
       [1.98769133862983, 41.27482813690753, 74.76265765819699],
       [1.98769137380855, 41.27482819306954, 74.75117006804794],
       [1.98769141386282, 41.27482828500526, 74.74662306625396],
       [1.98769145309691, 41.27482836027465, 74.74690582137555],
       [1.98769148223016, 41.27482840651268, 74.74238689802587],
       [1.98769145137507, 41.27482842164630, 74.73433817457408],
       [1.98769142092755, 41.27482840418348, 74.73561687301844],
       [1.98769139661746, 41.27482836440484, 74.73623752687126],
       [1.98769137454616, 41.27482834897823, 74.74086872488260],
       [1.98769137184254, 41.27482837972774, 74.73221335001290],
       [1.98769139116072, 41.27482844043350, 74.73089457210153],
       [1.98769140035903, 41.27482846185941, 74.72719270084053],
       [1.98769141181459, 41.27482851746741, 74.71200084965676],
       [1.98769142392833, 41.27482858860452, 74.71022288780659],
       [1.98769143499048, 41.27482857953575, 74.71530352625996],
       [1.98769143155358, 41.27482857917216, 74.71423174627125],
       [1.98769140526030, 41.27482858358479, 74.71864231582731],
       [1.98769133798366, 41.27482857472391, 74.73255816660821],
       [1.98769129142818, 41.27482855910259, 74.74225336685777],
       [1.98769128817593, 41.27482859832525, 74.73953976668417],
       [1.98769131216823, 41.27482865923723, 74.74425792600960],
       [1.98769132800707, 41.27482869831098, 74.75087924487889],
       [1.98769123745230, 41.27482863747453, 74.76071678102016],
       [1.98769116302576, 41.27482857474023, 74.76132695283741],
       [1.98769114388068, 41.27482855864588, 74.77288851421326],
       [1.98769115136957, 41.27482859170627, 74.78151111863554],
       [1.98769108761871, 41.27482860080915, 74.79077393840998],
       [1.98769101074921, 41.27482859227279, 74.79359844885767],
       [1.98769100511903, 41.27482860926317, 74.79354384634644],
       [1.98769094691706, 41.27482859276088, 74.80108977574855],
       [1.98769091084907, 41.27482859268397, 74.80605542659760],
       [1.98769091067307, 41.27482861219030, 74.80486911628395],
       [1.98769090928597, 41.27482864101802, 74.79900055006146],
       [1.98769089809728, 41.27482867178553, 74.78700942825526],
       [1.98769088570779, 41.27482870140977, 74.78536272887141],
       [1.98769085457518, 41.27482870789143, 74.79702807683498],
       [1.98769084182781, 41.27482874177768, 74.80676916614175],
       [1.98769079459093, 41.27482874523425, 74.82279679924250],
       [1.98769077751685, 41.27482876420841, 74.82877914328128],
       [1.98769082641457, 41.27482879872842, 74.83695518970490],
       [1.98769084212364, 41.27482882583264, 74.85083793755621],
       [1.98769082067151, 41.27482886476226, 74.85827437508851],
       [1.98769078827206, 41.27482890472936, 74.85949413292110],
       [1.98769078018574, 41.27482895969086, 74.86569554079324],
       [1.98769071746044, 41.27482892851568, 74.88373849354684],
       [1.98769068240489, 41.27482892352079, 74.89014274533838],
       [1.98769061512120, 41.27482890145004, 74.89711965341121],
       [1.98769057473342, 41.27482891292249, 74.90857703331858],
       [1.98769053434236, 41.27482892509935, 74.90242624748498],
       [1.98769051725380, 41.27482894562164, 74.89962826203555],
       [1.98769052416223, 41.27482897088176, 74.90202873852104],
       [1.98769053086232, 41.27482901623567, 74.89196135103703],
       [1.98769053683815, 41.27482903376979, 74.88508194126189],
       [1.98769050251484, 41.27482903089950, 74.88992726244032],
       [1.98769052034804, 41.27482907581544, 74.88315202482045],
       [1.98769055552618, 41.27482911536941, 74.87669811397791],
       [1.98769056899423, 41.27482916530344, 74.85823154076934],
       [1.98769056675825, 41.27482918463771, 74.84554072655737],
       [1.98769051354648, 41.27482917086155, 74.83454963471740],
       [1.98769046371415, 41.27482915653354, 74.83959153853357],
       [1.98769044106176, 41.27482919459292, 74.84445462562144],
       [1.98769040747643, 41.27482921091013, 74.85111747402698],
       [1.98769042263394, 41.27482923228609, 74.85095197148621],
       [1.98769044547844, 41.27482922765522, 74.84766633529216],
       [1.98769045637420, 41.27482922056683, 74.84587583690882],
       [1.98769046306707, 41.27482921715907, 74.85157341789454],
       [1.98769043705964, 41.27482924072871, 74.85223277285695],
       [1.98769039731211, 41.27482927643972, 74.84871628414840],
       [1.98769036695174, 41.27482929899787, 74.85316322557628],
       [1.98769033997992, 41.27482933467474, 74.86327611003071],
       [1.98769030652494, 41.27482933866023, 74.88554505258799],
       [1.98769028689556, 41.27482935776449, 74.89230241905898],
       [1.98769028887692, 41.27482937788275, 74.88969254307449],
       [1.98769032440555, 41.27482938899571, 74.88869582489133],
       [1.98769031357533, 41.27482937419031, 74.88670998252928],
       [1.98769032371439, 41.27482938209326, 74.89109714329243],
       [1.98769031141525, 41.27482940688011, 74.88867929019034],
       [1.98769031957893, 41.27482947400501, 74.88805359322578],
       [1.98769036362650, 41.27482958641534, 74.86649923678488],
       [1.98769032630364, 41.27482961635505, 74.86541576776654],
       [1.98769032045470, 41.27482965276050, 74.86843638587743],
       [1.98769034226397, 41.27482970063100, 74.86662015784532],
       [1.98769038486059, 41.27482976088564, 74.85930933710188],
       [1.98769039221848, 41.27482979182641, 74.85263455845416],
       [1.98769037717027, 41.27482982348955, 74.85121648106724],
       [1.98769038565728, 41.27482987895602, 74.84667910821736],
       [1.98769043867733, 41.27482992869376, 74.83670278731734],
       [1.98769044087574, 41.27482995588117, 74.83846456091851],
       [1.98769045775466, 41.27482997985357, 74.83538972213864],
       [1.98769045411059, 41.27482998619504, 74.83614072483033],
       [1.98769040861500, 41.27482996613770, 74.84263162966818],
       [1.98769034027833, 41.27482996870130, 74.83944836072624],
       [1.98769032084289, 41.27483001161276, 74.82568352110684],
       [1.98769031706989, 41.27483006596610, 74.81641569267958],
       [1.98769032053556, 41.27483013850162, 74.80651708226651],
       [1.98769029833281, 41.27483018223440, 74.81361224595457],
       [1.98769028623742, 41.27483020287131, 74.81611266359687],
       [1.98769031626311, 41.27483020990557, 74.80247665755451],
       [1.98769031273745, 41.27483020418308, 74.80187547579408],
       [1.98769031558564, 41.27483023635615, 74.80852755904198],
       [1.98769032434998, 41.27483025860670, 74.81401699595153],
       [1.98769034399255, 41.27483023660443, 74.81353837437928],
       [1.98769043063608, 41.27483024328749, 74.79816437140107],
       [1.98769047488613, 41.27483026957535, 74.77966013923287],
       [1.98769047684972, 41.27483029469450, 74.77165735419840],
       [1.98769046330780, 41.27483031993945, 74.77876123879105],
       [1.98769045828809, 41.27483037462922, 74.79006284475327],
       [1.98769044322104, 41.27483038258267, 74.79648376535624],
       [1.98769041873910, 41.27483034787151, 74.80103494320065],
       [1.98769038667608, 41.27483028968611, 74.80608617141843],
       [1.98769036405707, 41.27483027570443, 74.81113639660180],
       [1.98769033038293, 41.27483029511665, 74.81049953494221],
       [1.98769037663081, 41.27483037285758, 74.79554930608720],
       [1.98769041351724, 41.27483038428758, 74.79048130009323],
       [1.98769044822914, 41.27483039766498, 74.78961472772062],
       [1.98769046736601, 41.27483038808577, 74.79464047867805],
       [1.98769048401136, 41.27483040016844, 74.78388782311231],
       [1.98769045549996, 41.27483039858778, 74.77692321315408],
       [1.98769042731168, 41.27483039055645, 74.77823417540640],
       [1.98769042986688, 41.27483040536280, 74.76824737247080],
       [1.98769044119313, 41.27483041514783, 74.75261995382607],
       [1.98769045742332, 41.27483040739259, 74.74435627274215],
       [1.98769042574750, 41.27483037008868, 74.75150399841368],
       [1.98769042932281, 41.27483038202351, 74.74872716050595],
       [1.98769044016191, 41.27483040590158, 74.74251292459667],
       [1.98769045444871, 41.27483042265936, 74.74377277027816],
       [1.98769049049166, 41.27483046261311, 74.74185593519360],
       [1.98769054017798, 41.27483051807510, 74.73219218757004],
       [1.98769056302725, 41.27483050488524, 74.73008562251925],
       [1.98769059973167, 41.27483048561209, 74.72103310655802],
       [1.98769066185329, 41.27483053589060, 74.71430954802781],
       [1.98769071073397, 41.27483057475509, 74.71140597574413],
       [1.98769075795922, 41.27483059804564, 74.71128527168185],
       [1.98769080836623, 41.27483065830599, 74.70617922674865],
       [1.98769082420363, 41.27483071006514, 74.69613190274686],
       [1.98769082049965, 41.27483071468843, 74.68116981536150],
       [1.98769083849116, 41.27483071253854, 74.67518912348896],
       [1.98769084658197, 41.27483073581160, 74.67461827024817],
       [1.98769089697990, 41.27483079001628, 74.67171981558204],
       [1.98769092429000, 41.27483084263773, 74.67394583951682],
       [1.98769093900054, 41.27483089730504, 74.67284262552857],
       [1.98769094069706, 41.27483093403704, 74.66766119655222],
       [1.98769091923712, 41.27483090910717, 74.66162644233555],
       [1.98769093395830, 41.27483092471965, 74.65615975391120],
       [1.98769092076281, 41.27483091699408, 74.65891365148127],
       [1.98769091017693, 41.27483093363312, 74.65102672949433],
       [1.98769087601708, 41.27483094147750, 74.64722594153136],
       [1.98769084468269, 41.27483094581134, 74.64982596971095],
       [1.98769084925044, 41.27483099128458, 74.65096139721572],
       [1.98769082841324, 41.27483100275709, 74.65572527609766],
       [1.98769080789728, 41.27483100966872, 74.66517160926014],
       [1.98769078578871, 41.27483102451515, 74.67655822820961],
       [1.98769078578289, 41.27483103695832, 74.69390611629933],
       [1.98769079832021, 41.27483104838410, 74.69689912255853],
       [1.98769082909872, 41.27483107865512, 74.68757349438965],
       [1.98769083454280, 41.27483112803701, 74.66383828129619],
       [1.98769084125845, 41.27483115935626, 74.65513840783387],
       [1.98769085169868, 41.27483118876895, 74.65373768564314],
       [1.98769082395519, 41.27483120412081, 74.65403771959245],
       [1.98769079454617, 41.27483124027702, 74.65789505653083],
       [1.98769074719609, 41.27483126412987, 74.66853253170848],
       [1.98769073465715, 41.27483128072934, 74.66750091873109],
       [1.98769074517973, 41.27483129945129, 74.66716855484992],
       [1.98769073958484, 41.27483132727902, 74.66548797674477],
       [1.98769068560404, 41.27483133076605, 74.66870417539030],
       [1.98769063341564, 41.27483132154546, 74.67511620745063],
       [1.98769062503819, 41.27483134360621, 74.67251854296774],
       [1.98769057381150, 41.27483134533211, 74.66130153089762],
       [1.98769050677544, 41.27483133816433, 74.64860284049064],
       [1.98769043525249, 41.27483133149874, 74.64540275465697],
       [1.98769039473571, 41.27483134858084, 74.64457704592496],
       [1.98769035523059, 41.27483136034966, 74.64617235492915],
       [1.98769032138131, 41.27483138103945, 74.64671746455133],
       [1.98769028208096, 41.27483142637647, 74.64350978657603],
       [1.98769023703993, 41.27483144355082, 74.64926370978355]
       ]
   }
}
